[{"OBJECT_NAME":"STARLINK-36657","OBJECT_ID":"2026-033Q","EPOCH":"2026-03-05T16:58:20.142912","MEAN_MOTION":15.82119303,"ECCENTRICITY":0.0002541,"INCLINATION":42.9973,"RA_OF_ASC_NODE":295.7919,"ARG_OF_PERICENTER":233.8116,"MEAN_ANOMALY":126.2521,"EPHEMERIS_TYPE":0,"CLASSIFICATION_TYPE":"U","NORAD_CAT_ID":67835,"ELEMENT_SET_NO":999,"REV_AT_EPOCH":399,"BSTAR":0.00098007,"MEAN_MOTION_DOT":0.00212002,"MEAN_MOTION_DDOT":0},{"OBJECT_NAME":"STARLINK-36650","OBJECT_ID":"2026-033R","EPOCH":"2026-03-05T16:57:15.659136","MEAN_MOTION":15.82098378,"ECCENTRICITY":0.0002774,"INCLINATION":42.9971,"RA_OF_ASC_NODE":295.7859,"ARG_OF_PERICENTER":223.6354,"MEAN_ANOMALY":136.4298,"EPHEMERIS_TYPE":0,"CLASSIFICATION_TYPE":"U","NORAD_CAT_ID":67836,"ELEMENT_SET_NO":999,"REV_AT_EPOCH":399,"BSTAR":0.0017159,"MEAN_MOTION_DOT":0.00378496,"MEAN_MOTION_DDOT":0},{"OBJECT_NAME":"STARLINK-36649","OBJECT_ID":"2026-033S","EPOCH":"2026-03-05T16:56:10.905792","MEAN_MOTION":15.82136578,"ECCENTRICITY":0.0002287,"INCLINATION":42.9972,"RA_OF_ASC_NODE":295.78,"ARG_OF_PERICENTER":248.7783,"MEAN_ANOMALY":111.2844,"EPHEMERIS_TYPE":0,"CLASSIFICATION_TYPE":"U","NORAD_CAT_ID":67837,"ELEMENT_SET_NO":999,"REV_AT_EPOCH":399,"BSTAR":0.0015318,"MEAN_MOTION_DOT":0.00336783,"MEAN_MOTION_DDOT":0},{"OBJECT_NAME":"STARLINK-36654","OBJECT_ID":"2026-033T","EPOCH":"2026-03-05T18:26:01.056192","MEAN_MOTION":15.820704,"ECCENTRICITY":0.0002514,"INCLINATION":42.9972,"RA_OF_ASC_NODE":295.3874,"ARG_OF_PERICENTER":273.9909,"MEAN_ANOMALY":86.0675,"EPHEMERIS_TYPE":0,"CLASSIFICATION_TYPE":"U","NORAD_CAT_ID":67838,"ELEMENT_SET_NO":999,"REV_AT_EPOCH":400,"BSTAR":0.0008548,"MEAN_MOTION_DOT":0.00183808,"MEAN_MOTION_DDOT":0},{"OBJECT_NAME":"STARLINK-36652","OBJECT_ID":"2026-033U","EPOCH":"2026-03-05T18:24:56.194848","MEAN_MOTION":15.82025688,"ECCENTRICITY":0.0001373,"INCLINATION":42.9965,"RA_OF_ASC_NODE":295.3818,"ARG_OF_PERICENTER":232.3868,"MEAN_ANOMALY":127.6879,"EPHEMERIS_TYPE":0,"CLASSIFICATION_TYPE":"U","NORAD_CAT_ID":67839,"ELEMENT_SET_NO":999,"REV_AT_EPOCH":400,"BSTAR":0.00058594,"MEAN_MOTION_DOT":0.00124692,"MEAN_MOTION_DDOT":0},{"OBJECT_NAME":"STARLINK-36651","OBJECT_ID":"2026-033V","EPOCH":"2026-03-05T18:23:51.255744","MEAN_MOTION":15.82018229,"ECCENTRICITY":0.0005681,"INCLINATION":42.9971,"RA_OF_ASC_NODE":295.3748,"ARG_OF_PERICENTER":151.6202,"MEAN_ANOMALY":208.498,"EPHEMERIS_TYPE":0,"CLASSIFICATION_TYPE":"U","NORAD_CAT_ID":67840,"ELEMENT_SET_NO":999,"REV_AT_EPOCH":400,"BSTAR":0.0016062,"MEAN_MOTION_DOT":0.00352034,"MEAN_MOTION_DDOT":0},{"OBJECT_NAME":"STARLINK-36656","OBJECT_ID":"2026-033W","EPOCH":"2026-03-05T16:51:52.219008","MEAN_MOTION":15.82079868,"ECCENTRICITY":0.000225,"INCLINATION":42.9971,"RA_OF_ASC_NODE":295.7559,"ARG_OF_PERICENTER":225.3337,"MEAN_ANOMALY":134.7352,"EPHEMERIS_TYPE":0,"CLASSIFICATION_TYPE":"U","NORAD_CAT_ID":67841,"ELEMENT_SET_NO":999,"REV_AT_EPOCH":399,"BSTAR":0.0020035,"MEAN_MOTION_DOT":0.00445087,"MEAN_MOTION_DDOT":0},{"OBJECT_NAME":"STARLINK-36653","OBJECT_ID":"2026-033X","EPOCH":"2026-03-05T18:21:42.187968","MEAN_MOTION":15.82007442,"ECCENTRICITY":0.0003161,"INCLINATION":42.9972,"RA_OF_ASC_NODE":295.3629,"ARG_OF_PERICENTER":171.8388,"MEAN_ANOMALY":188.2535,"EPHEMERIS_TYPE":0,"CLASSIFICATION_TYPE":"U","NORAD_CAT_ID":67842,"ELEMENT_SET_NO":999,"REV_AT_EPOCH":400,"BSTAR":0.0014658,"MEAN_MOTION_DOT":0.00319691,"MEAN_MOTION_DDOT":0},{"OBJECT_NAME":"STARLINK-36589","OBJECT_ID":"2026-033Y","EPOCH":"2026-03-05T18:20:37.696416","MEAN_MOTION":15.81984969,"ECCENTRICITY":0.0002108,"INCLINATION":42.9968,"RA_OF_ASC_NODE":295.3562,"ARG_OF_PERICENTER":275.6594,"MEAN_ANOMALY":84.4038,"EPHEMERIS_TYPE":0,"CLASSIFICATION_TYPE":"U","NORAD_CAT_ID":67843,"ELEMENT_SET_NO":999,"REV_AT_EPOCH":400,"BSTAR":0.001951,"MEAN_MOTION_DOT":0.0043076,"MEAN_MOTION_DDOT":0},{"OBJECT_NAME":"STARLINK-36598","OBJECT_ID":"2026-033Z","EPOCH":"2026-03-05T18:19:32.871360","MEAN_MOTION":15.81992082,"ECCENTRICITY":0.00024,"INCLINATION":42.9981,"RA_OF_ASC_NODE":295.3518,"ARG_OF_PERICENTER":287.6988,"MEAN_ANOMALY":72.3622,"EPHEMERIS_TYPE":0,"CLASSIFICATION_TYPE":"U","NORAD_CAT_ID":67844,"ELEMENT_SET_NO":999,"REV_AT_EPOCH":400,"BSTAR":0.0016068,"MEAN_MOTION_DOT":0.00351515,"MEAN_MOTION_DDOT":0},{"OBJECT_NAME":"STARLINK-36606","OBJECT_ID":"2026-033AA","EPOCH":"2026-03-05T18:18:28.280448","MEAN_MOTION":15.82053823,"ECCENTRICITY":0.0001951,"INCLINATION":42.997,"RA_OF_ASC_NODE":295.3444,"ARG_OF_PERICENTER":271.3192,"MEAN_ANOMALY":88.7456,"EPHEMERIS_TYPE":0,"CLASSIFICATION_TYPE":"U","NORAD_CAT_ID":67845,"ELEMENT_SET_NO":999,"REV_AT_EPOCH":400,"BSTAR":0.00077331,"MEAN_MOTION_DOT":0.00165749,"MEAN_MOTION_DDOT":0},{"OBJECT_NAME":"STARLINK-36658","OBJECT_ID":"2026-033AB","EPOCH":"2026-03-05T18:17:23.256672","MEAN_MOTION":15.82111776,"ECCENTRICITY":0.0002193,"INCLINATION":42.9967,"RA_OF_ASC_NODE":295.3373,"ARG_OF_PERICENTER":244.4099,"MEAN_ANOMALY":115.6546,"EPHEMERIS_TYPE":0,"CLASSIFICATION_TYPE":"U","NORAD_CAT_ID":67846,"ELEMENT_SET_NO":999,"REV_AT_EPOCH":400,"BSTAR":0.0010754,"MEAN_MOTION_DOT":0.00233159,"MEAN_MOTION_DDOT":0},{"OBJECT_NAME":"STARLINK-36618","OBJECT_ID":"2026-033AC","EPOCH":"2026-03-05T16:00:00.999936","MEAN_MOTION":15.93139811,"ECCENTRICITY":0.0002103,"INCLINATION":42.9848,"RA_OF_ASC_NODE":294.0562,"ARG_OF_PERICENTER":265.4848,"MEAN_ANOMALY":285.8816,"EPHEMERIS_TYPE":0,"CLASSIFICATION_TYPE":"U","NORAD_CAT_ID":67847,"ELEMENT_SET_NO":999,"REV_AT_EPOCH":401,"BSTAR":-0.0032621,"MEAN_MOTION_DOT":-0.01190593,"MEAN_MOTION_DDOT":0.00042026},{"OBJECT_NAME":"STARLINK-36660","OBJECT_ID":"2026-033AD","EPOCH":"2026-03-05T18:16:18.499008","MEAN_MOTION":15.82091579,"ECCENTRICITY":0.0001884,"INCLINATION":42.9967,"RA_OF_ASC_NODE":295.3327,"ARG_OF_PERICENTER":264.005,"MEAN_ANOMALY":96.0607,"EPHEMERIS_TYPE":0,"CLASSIFICATION_TYPE":"U","NORAD_CAT_ID":67848,"ELEMENT_SET_NO":999,"REV_AT_EPOCH":400,"BSTAR":0.0011737,"MEAN_MOTION_DOT":0.00254914,"MEAN_MOTION_DDOT":0},{"OBJECT_NAME":"STARLINK-36602","OBJECT_ID":"2026-033AE","EPOCH":"2026-03-05T18:15:13.837248","MEAN_MOTION":15.82070215,"ECCENTRICITY":0.0001985,"INCLINATION":42.9969,"RA_OF_ASC_NODE":295.3246,"ARG_OF_PERICENTER":250.2157,"MEAN_ANOMALY":109.8501,"EPHEMERIS_TYPE":0,"CLASSIFICATION_TYPE":"U","NORAD_CAT_ID":67849,"ELEMENT_SET_NO":999,"REV_AT_EPOCH":400,"BSTAR":0.00077384,"MEAN_MOTION_DOT":0.00165994,"MEAN_MOTION_DDOT":0},{"OBJECT_NAME":"STARLINK-36840","OBJECT_ID":"2026-034A","EPOCH":"2026-03-05T17:58:16.548960","MEAN_MOTION":15.80967512,"ECCENTRICITY":7.36e-5,"INCLINATION":53.1591,"RA_OF_ASC_NODE":231.1085,"ARG_OF_PERICENTER":66.1685,"MEAN_ANOMALY":293.9415,"EPHEMERIS_TYPE":0,"CLASSIFICATION_TYPE":"U","NORAD_CAT_ID":67850,"ELEMENT_SET_NO":999,"REV_AT_EPOCH":331,"BSTAR":0.0011479,"MEAN_MOTION_DOT":0.00233095,"MEAN_MOTION_DDOT":0}]
